STARLINK-2405           
1 47919U 21021BM  26200.77812744  .00009142  00000+0  30644-3 0  9991
2 47919  53.1612  26.3562 0001461  79.8955 280.2212 15.31653270296286
