[
  {
    "OBJECT_NAME": "STARLINK-2405",
    "OBJECT_ID": "2021-021BM",
    "EPOCH": "2026-07-19T18:40:30.211000",
    "MEAN_MOTION": 15.3165327,
    "ECCENTRICITY": 0.0001461,
    "INCLINATION": 53.1612,
    "RA_OF_ASC_NODE": 26.3562,
    "ARG_OF_PERICENTER": 79.8955,
    "MEAN_ANOMALY": 280.2212,
    "EPHEMERIS_TYPE": 0,
    "CLASSIFICATION_TYPE": "U",
    "NORAD_CAT_ID": 47919,
    "ELEMENT_SET_NO": 999,
    "REV_AT_EPOCH": 29628,
    "BSTAR": 0.00030644,
    "MEAN_MOTION_DOT": 0.00009142,
    "MEAN_MOTION_DDOT": 0
  }
]
